{"type": "FeatureCollection", "features": [ {"type": "Feature", "properties": {"norad_id": 32260, "name": "GPS BIIRM-4 (PRN 15)", "group": "gnss", "lat": 27.747361147054214, "lon": -114.83132308509917, "alt_km": 19953.01910596478, "timestamp": "2025-12-14T22:38:41.000538+00:00", "meta": {"OBJECT_NAME": "GPS BIIRM-4 (PRN 15)", "OBJECT_ID": "2007-047A", "EPOCH": "2025-12-13T18:00:56.680128", "MEAN_MOTION": 2.00564495, "ECCENTRICITY": 0.0164139, "INCLINATION": 53.9559, "RA_OF_ASC_NODE": 87.7167, "ARG_OF_PERICENTER": 85.2596, "MEAN_ANOMALY": 276.6041, "EPHEMERIS_TYPE": 0, "CLASSIFICATION_TYPE": "U", "NORAD_CAT_ID": 32260, "ELEMENT_SET_NO": 999, "REV_AT_EPOCH": 13309, "BSTAR": 0, "MEAN_MOTION_DOT": -4.4e-07, "MEAN_MOTION_DDOT": 0}, "tle": {"line1": "1 32260U 07047A   25347.75065602 -.00000044  00000+0  00000+0 0  9990", "line2": "2 32260  53.9559  87.7167 0164139  85.2596 276.6041  2.00564495133093"}}, "geometry": {"type": "Point", "coordinates": [-114.83132308509917, 27.747361147054214]}}, {"type": "Feature", "properties": {"norad_id": 32275, "name": "COSMOS 2433 (720)", "group": "gnss", "lat": -15.95635075215835, "lon": -45.30624592258906, "alt_km": 19132.26137363164, "timestamp": "2025-12-14T22:38:41.000550+00:00", "meta": {"OBJECT_NAME": "COSMOS 2433 (720)", "OBJECT_ID": "2007-052A", "EPOCH": "2025-12-10T06:34:19.673184", "MEAN_MOTION": 2.13103813, "ECCENTRICITY": 0.00055546, "INCLINATION": 65.6847, "RA_OF_ASC_NODE": 322.2886, "ARG_OF_PERICENTER": 252.6006, "MEAN_ANOMALY": 107.3381, "EPHEMERIS_TYPE": 0, "CLASSIFICATION_TYPE": "U", "NORAD_CAT_ID": 32275, "ELEMENT_SET_NO": 999, "REV_AT_EPOCH": 14103, "BSTAR": 0, "MEAN_MOTION_DOT": -5e-07, "MEAN_MOTION_DDOT": 0}, "tle": {"line1": "1 32275U 07052A   25344.27383881 -.00000050  00000+0  00000+0 0  9995", "line2": "2 32275  65.6847 322.2886 0005554 252.6006 107.3381  2.13103813141032"}}, "geometry": {"type": "Point", "coordinates": [-45.30624592258906, -15.95635075215835]}}, {"type": "Feature", "properties": {"norad_id": 32276, "name": "COSMOS 2432 (719)", "group": "gnss", "lat": -60.7377331099178, "lon": -91.49666484630076, "alt_km": 19110.278039710163, "timestamp": "2025-12-14T22:38:41.000562+00:00", "meta": {"OBJECT_NAME": "COSMOS 2432 (719)", "OBJECT_ID": "2007-052B", "EPOCH": "2025-12-14T08:01:05.996352", "MEAN_MOTION": 2.1310308, "ECCENTRICITY": 0.00112533, "INCLINATION": 65.6979, "RA_OF_ASC_NODE": 322.2761, "ARG_OF_PERICENTER": 312.2703, "MEAN_ANOMALY": 227.0299, "EPHEMERIS_TYPE": 0, "CLASSIFICATION_TYPE": "U", "NORAD_CAT_ID": 32276, "ELEMENT_SET_NO": 999, "REV_AT_EPOCH": 14114, "BSTAR": 0, "MEAN_MOTION_DOT": -6.3e-07, "MEAN_MOTION_DDOT": 0}, "tle": {"line1": "1 32276U 07052B   25348.33409718 -.00000063  00000+0  00000+0 0  9999", "line2": "2 32276  65.6979 322.2761 0011253 312.2703 227.0299  2.13103080141147"}}, "geometry": {"type": "Point", "coordinates": [-91.49666484630076, -60.7377331099178]}}, {"type": "Feature", "properties": {"norad_id": 32384, "name": "GPS BIIRM-5 (PRN 29)", "group": "gnss", "lat": -55.09378719602976, "lon": -163.4507417944195, "alt_km": 20216.637742332987, "timestamp": "2025-12-14T22:38:41.000573+00:00", "meta": {"OBJECT_NAME": "GPS BIIRM-5 (PRN 29)", "OBJECT_ID": "2007-062A", "EPOCH": "2025-12-14T07:22:44.014368", "MEAN_MOTION": 2.00577433, "ECCENTRICITY": 0.00322391, "INCLINATION": 55.1808, "RA_OF_ASC_NODE": 281.583, "ARG_OF_PERICENTER": 162.4014, "MEAN_ANOMALY": 10.7862, "EPHEMERIS_TYPE": 0, "CLASSIFICATION_TYPE": "U", "NORAD_CAT_ID": 32384, "ELEMENT_SET_NO": 999, "REV_AT_EPOCH": 13180, "BSTAR": 0, "MEAN_MOTION_DOT": -7.8e-07, "MEAN_MOTION_DDOT": 0}, "tle": {"line1": "1 32384U 07062A   25348.30745387 -.00000078  00000+0  00000+0 0  9998", "line2": "2 32384  55.1808 281.5830 0032239 162.4014  10.7862  2.00577433131801"}}, "geometry": {"type": "Point", "coordinates": [-163.4507417944195, -55.09378719602976]}}, {"type": "Feature", "properties": {"norad_id": 32393, "name": "COSMOS 2434 (721)", "group": "gnss", "lat": -46.014016277395676, "lon": 48.03909327060499, "alt_km": 19145.8754085387, "timestamp": "2025-12-14T22:38:41.000585+00:00", "meta": {"OBJECT_NAME": "COSMOS 2434 (721)", "OBJECT_ID": "2007-065A", "EPOCH": "2025-12-10T15:35:17.035872", "MEAN_MOTION": 2.13101152, "ECCENTRICITY": 0.0004304, "INCLINATION": 64.3147, "RA_OF_ASC_NODE": 198.2738, "ARG_OF_PERICENTER": 71.148, "MEAN_ANOMALY": 107.63, "EPHEMERIS_TYPE": 0, "CLASSIFICATION_TYPE": "U", "NORAD_CAT_ID": 32393, "ELEMENT_SET_NO": 999, "REV_AT_EPOCH": 13975, "BSTAR": 0, "MEAN_MOTION_DOT": 4.8e-07, "MEAN_MOTION_DDOT": 0}, "tle": {"line1": "1 32393U 07065A   25344.64950273  .00000048  00000+0  00000+0 0  9992", "line2": "2 32393  64.3147 198.2738 0004304  71.1480 107.6300  2.13101152139755"}}, "geometry": {"type": "Point", "coordinates": [48.03909327060499, -46.014016277395676]}}, {"type": "Feature", "properties": {"norad_id": 32395, "name": "COSMOS 2436 (723)", "group": "gnss", "lat": 5.386883782130727, "lon": -159.19790345720295, "alt_km": 19084.640208650668, "timestamp": "2025-12-14T22:38:41.000597+00:00", "meta": {"OBJECT_NAME": "COSMOS 2436 (723)", "OBJECT_ID": "2007-065C", "EPOCH": "2025-12-08T02:01:11.627904", "MEAN_MOTION": 2.13100022, "ECCENTRICITY": 0.00177472, "INCLINATION": 64.3236, "RA_OF_ASC_NODE": 198.4308, "ARG_OF_PERICENTER": 9.2257, "MEAN_ANOMALY": 134.6131, "EPHEMERIS_TYPE": 0, "CLASSIFICATION_TYPE": "U", "NORAD_CAT_ID": 32395, "ELEMENT_SET_NO": 999, "REV_AT_EPOCH": 13965, "BSTAR": 0, "MEAN_MOTION_DOT": 5.1e-07, "MEAN_MOTION_DDOT": 0}, "tle": {"line1": "1 32395U 07065C   25342.08416236  .00000051  00000+0  00000+0 0  9990", "line2": "2 32395  64.3236 198.4308 0017747   9.2257 134.6131  2.13100022139656"}}, "geometry": {"type": "Point", "coordinates": [-159.19790345720295, 5.386883782130727]}}, {"type": "Feature", "properties": {"norad_id": 32711, "name": "GPS BIIRM-6 (PRN 07)", "group": "gnss", "lat": -12.201488069082137, "lon": -13.833033866924675, "alt_km": 19831.691552310614, "timestamp": "2025-12-14T22:38:41.000608+00:00", "meta": {"OBJECT_NAME": "GPS BIIRM-6 (PRN 07)", "OBJECT_ID": "2008-012A", "EPOCH": "2025-12-13T16:06:10.352160", "MEAN_MOTION": 2.00565694, "ECCENTRICITY": 0.02024855, "INCLINATION": 54.4771, "RA_OF_ASC_NODE": 157.3357, "ARG_OF_PERICENTER": 244.9586, "MEAN_ANOMALY": 112.9395, "EPHEMERIS_TYPE": 0, "CLASSIFICATION_TYPE": "U", "NORAD_CAT_ID": 32711, "ELEMENT_SET_NO": 999, "REV_AT_EPOCH": 13003, "BSTAR": 0, "MEAN_MOTION_DOT": 1e-06, "MEAN_MOTION_DDOT": 0}, "tle": {"line1": "1 32711U 08012A   25347.67095315  .00000100  00000+0  00000+0 0  9991", "line2": "2 32711  54.4771 157.3357 0202485 244.9586 112.9395  2.00565694130038"}}, "geometry": {"type": "Point", "coordinates": [-13.833033866924675, -12.201488069082137]}}, {"type": "Feature", "properties": {"norad_id": 35752, "name": "GPS BIIRM-8 (PRN 05)", "group": "gnss", "lat": -30.091297166211596, "lon": -122.36721218086151, "alt_km": 20283.41358167407, "timestamp": "2025-12-14T22:38:41.000620+00:00", "meta": {"OBJECT_NAME": "GPS BIIRM-8 (PRN 05)", "OBJECT_ID": "2009-043A", "EPOCH": "2025-12-13T15:33:53.607168", "MEAN_MOTION": 2.00565679, "ECCENTRICITY": 0.00517811, "INCLINATION": 56.0916, "RA_OF_ASC_NODE": 34.7471, "ARG_OF_PERICENTER": 81.8933, "MEAN_ANOMALY": 279.8016, "EPHEMERIS_TYPE": 0, "CLASSIFICATION_TYPE": "U", "NORAD_CAT_ID": 35752, "ELEMENT_SET_NO": 999, "REV_AT_EPOCH": 11964, "BSTAR": 0, "MEAN_MOTION_DOT": -9.6e-07, "MEAN_MOTION_DDOT": 0}, "tle": {"line1": "1 35752U 09043A   25347.64853712 -.00000096  00000+0  00000+0 0  9999", "line2": "2 35752  56.0916  34.7471 0051781  81.8933 279.8016  2.00565679119645"}}, "geometry": {"type": "Point", "coordinates": [-122.36721218086151, -30.091297166211596]}}, {"type": "Feature", "properties": {"norad_id": 36111, "name": "COSMOS 2456 (730)", "group": "gnss", "lat": 27.024140283060465, "lon": 91.07790528545014, "alt_km": 19126.961483201125, "timestamp": "2025-12-14T22:38:41.000632+00:00", "meta": {"OBJECT_NAME": "COSMOS 2456 (730)", "OBJECT_ID": "2009-070A", "EPOCH": "2025-12-09T05:47:54.858624", "MEAN_MOTION": 2.13103359, "ECCENTRICITY": 0.00028383, "INCLINATION": 64.8981, "RA_OF_ASC_NODE": 77.4578, "ARG_OF_PERICENTER": 298.5783, "MEAN_ANOMALY": 37.1692, "EPHEMERIS_TYPE": 0, "CLASSIFICATION_TYPE": "U", "NORAD_CAT_ID": 36111, "ELEMENT_SET_NO": 999, "REV_AT_EPOCH": 12437, "BSTAR": 0, "MEAN_MOTION_DOT": -1.7e-07, "MEAN_MOTION_DDOT": 0}, "tle": {"line1": "1 36111U 09070A   25343.24160716 -.00000017  00000+0  00000+0 0  9999", "line2": "2 36111  64.8981  77.4578 0002838 298.5783  37.1692  2.13103359124373"}}, "geometry": {"type": "Point", "coordinates": [91.07790528545014, 27.024140283060465]}}, {"type": "Feature", "properties": {"norad_id": 36112, "name": "COSMOS 2457 (733)", "group": "gnss", "lat": 18.707722542047208, "lon": -112.00885416798634, "alt_km": 19116.04963931531, "timestamp": "2025-12-14T22:38:41.000643+00:00", "meta": {"OBJECT_NAME": "COSMOS 2457 (733)", "OBJECT_ID": "2009-070B", "EPOCH": "2025-12-13T07:58:58.732608", "MEAN_MOTION": 2.13100875, "ECCENTRICITY": 0.00047033, "INCLINATION": 64.8861, "RA_OF_ASC_NODE": 77.165, "ARG_OF_PERICENTER": 158.447, "MEAN_ANOMALY": 204.9439, "EPHEMERIS_TYPE": 0, "CLASSIFICATION_TYPE": "U", "NORAD_CAT_ID": 36112, "ELEMENT_SET_NO": 999, "REV_AT_EPOCH": 12447, "BSTAR": 0, "MEAN_MOTION_DOT": -5.1e-07, "MEAN_MOTION_DDOT": 0}, "tle": {"line1": "1 36112U 09070B   25347.33262422 -.00000051  00000+0  00000+0 0  9999", "line2": "2 36112  64.8861  77.1650 0004703 158.4470 204.9439  2.13100875124473"}}, "geometry": {"type": "Point", "coordinates": [-112.00885416798634, 18.707722542047208]}}]}